STARLINK-3096
1 19131C 21082B   21326.13332675  .00010770  00000-0  90243-4 0  3266
2 19131  69.9984 292.9217 0003144 286.4439  33.9835 15.69732006    16
